ORBCOMM FM05            
1 25117U 97084F   25308.03712446  .00002017  00000+0  59510-3 0  9991
2 25117  45.0146  56.3433 0003987 207.9702 152.0936 14.46481099460851
ORBCOMM FM06            
1 25118U 97084G   25307.69673796  .00002176  00000+0  63690-3 0  9997
2 25118  45.0135  57.5532 0002868 208.6334 291.3706 14.46632964461727
ORBCOMM FM07            
1 25119U 97084H   25307.68263595  .00001941  00000+0  57209-3 0  9997
2 25119  45.0132  58.3769 0004751 202.7714 157.2927 14.46654251461713
ORBCOMM FM17            
1 25413U 98046A   25307.75399446  .00001061  00000+0  41501-3 0  9997
2 25413  44.9949 318.7836 0003887 230.3520 129.6984 14.35407942423224
ORBCOMM FM18            
1 25414U 98046B   25308.05964037  .00001571  00000+0  55000-3 0  9991
2 25414  44.9924 230.9506 0005495 284.4465  75.5774 14.38984858424396
ORBCOMM FM19            
1 25415U 98046C   25308.09696735  .00001526  00000+0  53781-3 0  9997
2 25415  44.9937 232.9885 0004257 284.5249  89.7846 14.38800327424350
